[{"OBJECT_NAME":"OBJECT A","OBJECT_ID":"2023-189A","EPOCH":"2026-03-09T22:59:06.381600","MEAN_MOTION":15.32403275,"ECCENTRICITY":0.00094831,"INCLINATION":97.4458,"RA_OF_ASC_NODE":86.5997,"ARG_OF_PERICENTER":249.5377,"MEAN_ANOMALY":110.4847,"EPHEMERIS_TYPE":0,"CLASSIFICATION_TYPE":"U","NORAD_CAT_ID":58502,"ELEMENT_SET_NO":999,"REV_AT_EPOCH":12601,"BSTAR":0.00019874471,"MEAN_MOTION_DOT":6.146e-5,"MEAN_MOTION_DDOT":0},{"OBJECT_NAME":"STARLINK-34555","OBJECT_ID":"2025-139B","EPOCH":"2026-03-09T10:29:16.789632","MEAN_MOTION":15.30202868,"ECCENTRICITY":0.00011904,"INCLINATION":53.158,"RA_OF_ASC_NODE":128.3422,"ARG_OF_PERICENTER":84.8527,"MEAN_ANOMALY":275.261,"EPHEMERIS_TYPE":0,"CLASSIFICATION_TYPE":"U","NORAD_CAT_ID":64665,"ELEMENT_SET_NO":999,"REV_AT_EPOCH":4014,"BSTAR":0.00049860117,"MEAN_MOTION_DOT":0.00014438,"MEAN_MOTION_DDOT":0}]
